IRIDIUM 144             
1 43249U 18030A   25353.43712454  .00000048  00000+0  99719-5 0  9993
2 43249  86.3966   5.5454 0002365  93.8161 266.3305 14.34217587404374
IRIDIUM 149             
1 43250U 18030B   25353.79230800  .00000050  00000+0  10685-4 0  9991
2 43250  86.3964   5.3659 0002246  92.2862 267.8591 14.34218010404441
IRIDIUM 157             
1 43251U 18030C   25353.74156909  .00000222  00000+0  72219-4 0  9996
2 43251  86.3965   5.4360 0002169  87.6053 272.5391 14.34218128404415
IRIDIUM 140             
1 43252U 18030D   25353.41175389  .00000058  00000+0  13674-4 0  9991
2 43252  86.3965   5.5871 0002311  94.4411 265.7049 14.34217527404424
IRIDIUM 145             
1 43253U 18030E   25353.74791054  .00000225  00000+0  73112-4 0  9990
2 43253  86.3965   5.4190 0002580  92.7579 267.3912 14.34217100404404
IRIDIUM 146             
1 43254U 18030F   25353.10097149  .00000236  00000+0  77369-4 0  9995
2 43254  86.3966   5.7025 0002407  92.0392 268.1080 14.34214596404322
IRIDIUM 148             
1 43255U 18030G   25353.41809652  .00000103  00000+0  29711-4 0  9991
2 43255  86.3966   5.6101 0002234  88.8303 271.3149 14.34217561404406
IRIDIUM 142             
1 43256U 18030H   25353.73522581  .00000105  00000+0  30586-4 0  9994
2 43256  86.3962   5.3731 0002603  93.1104 267.0390 14.34218210404410
